HULIANWANG DIGUI-60     
1 65166U 25174C   26198.27430805  .00000022  00000+0  16926-4 0  9999
2 65166  86.4937 241.8414 0001851 102.5983 257.5358 13.24407092 44779
HULIANWANG DIGUI-61     
1 65167U 25174D   26198.28188074  .00000036  00000+0  49167-4 0  9997
2 65167  86.4945 241.8724 0001670 101.2345 258.8977 13.24407705 44772
HULIANWANG DIGUI-62     
1 65168U 25174E   26198.28931574  .00000051  00000+0  85271-4 0  9992
2 65168  86.4887 241.6837 0001761 105.2527 254.8801 13.24409297 44778
HULIANWANG DIGUI-63     
1 65169U 25174F   26198.22125632  .00000063  00000+0  11269-3 0  9995
2 65169  86.4940 241.8840 0001655 104.8779 255.2538 13.24403620 44766
HULIANWANG DIGUI-64     
1 65170U 25174G   26198.30451539  .00000063  00000+0  11171-3 0  9996
2 65170  86.4898 241.7283 0001826 104.3181 255.8156 13.24407592 44777
HULIANWANG DIGUI-65     
1 65171U 25174H   26198.31957375  .00000037  00000+0  53189-4 0  9994
2 65171  86.4862 241.6154 0001715  99.8333 260.2995 13.24407603 44773
HULIANWANG DIGUI-66     
1 65172U 25174J   26198.23651353  .00000045  00000+0  71617-4 0  9998
2 65172  86.4897 241.7551 0001845 102.3638 257.7703 13.24407251 44762
HULIANWANG DIGUI-67     
1 65173U 25174K   26198.25158791  .00000023  00000+0  18917-4 0  9999
2 65173  86.4909 241.7986 0001822 100.6389 259.4950 13.24408765 44739
HULIANWANG DIGUI-68     
1 65228U 25178A   26198.27413068  .00000011  00000+0 -81004-5 0  9993
2 65228  86.4991   3.3663 0001997  91.4484 268.6879 13.24411290 44291
HULIANWANG DIGUI-69     
1 65229U 25178B   26198.26668564  .00000027  00000+0  28646-4 0  9994
2 65229  86.5011   3.4297 0001906  92.0191 268.1161 13.24412708 44296
HULIANWANG DIGUI-70     
1 65230U 25178C   26198.25912486  .00000035  00000+0  46534-4 0  9995
2 65230  86.4949   3.2219 0001993  89.8184 270.3179 13.24411812 44290
HULIANWANG DIGUI-71     
1 65231U 25178D   26198.25158686  .00000035  00000+0  46951-4 0  9993
2 65231  86.5008   3.4144 0001973  90.6284 269.5076 13.24411496 44290
HULIANWANG DIGUI-72     
1 65232U 25178E   26198.24403343  .00000021  00000+0  15550-4 0  9992
2 65232  86.4991   3.3532 0001978  90.7781 269.3580 13.24410945 44295
HULIANWANG DIGUI-73     
1 65305U 25187A   26198.28432661 -.00000098  00000+0  55498-4 0  9992
2 65305  50.0053  97.9383 0000097 328.0149  32.0717 13.29323599 43706
HULIANWANG DIGUI-74     
1 65306U 25187B   26198.26771369 -.00000100  00000+0  51760-4 0  9994
2 65306  50.0095  97.9603 0000098 314.6472  45.4393 13.29321611 43700
HULIANWANG DIGUI-75     
1 65307U 25187C   26198.25102252 -.00000097  00000+0  58045-4 0  9991
2 65307  50.0087  97.8539 0000102 330.3460  29.7406 13.29322786 43701
