{"fetched_at":"2026-07-17T17:38:19.080Z","source":"https://celestrak.org/NORAD/elements/gp.php?NAME=HULIANWANG&FORMAT=JSON","constellation":"guowang","records":[{"OBJECT_NAME":"HULIANWANG DIGUI-60","OBJECT_ID":"2025-174C","EPOCH":"2026-07-17T06:35:00.215520","CLASSIFICATION_TYPE":"U","MEAN_MOTION":13.24407092,"ECCENTRICITY":0.0001851,"INCLINATION":86.4937,"RA_OF_ASC_NODE":241.8414,"ARG_OF_PERICENTER":102.5983,"MEAN_ANOMALY":257.5358,"EPHEMERIS_TYPE":0,"NORAD_CAT_ID":65166,"ELEMENT_SET_NO":999,"REV_AT_EPOCH":4477,"BSTAR":0.000016925735,"MEAN_MOTION_DOT":2.2e-7,"MEAN_MOTION_DDOT":0},{"OBJECT_NAME":"HULIANWANG DIGUI-61","OBJECT_ID":"2025-174D","EPOCH":"2026-07-17T06:45:54.495936","CLASSIFICATION_TYPE":"U","MEAN_MOTION":13.24407705,"ECCENTRICITY":0.00016709,"INCLINATION":86.4945,"RA_OF_ASC_NODE":241.8724,"ARG_OF_PERICENTER":101.2345,"MEAN_ANOMALY":258.8977,"EPHEMERIS_TYPE":0,"NORAD_CAT_ID":65167,"ELEMENT_SET_NO":999,"REV_AT_EPOCH":4477,"BSTAR":0.000049167133,"MEAN_MOTION_DOT":3.6e-7,"MEAN_MOTION_DDOT":0},{"OBJECT_NAME":"HULIANWANG DIGUI-62","OBJECT_ID":"2025-174E","EPOCH":"2026-07-17T06:56:36.879936","CLASSIFICATION_TYPE":"U","MEAN_MOTION":13.24409297,"ECCENTRICITY":0.00017613,"INCLINATION":86.4887,"RA_OF_ASC_NODE":241.6837,"ARG_OF_PERICENTER":105.2527,"MEAN_ANOMALY":254.8801,"EPHEMERIS_TYPE":0,"NORAD_CAT_ID":65168,"ELEMENT_SET_NO":999,"REV_AT_EPOCH":4477,"BSTAR":0.0000852713,"MEAN_MOTION_DOT":5.1e-7,"MEAN_MOTION_DDOT":0},{"OBJECT_NAME":"HULIANWANG DIGUI-63","OBJECT_ID":"2025-174F","EPOCH":"2026-07-17T05:18:36.546048","CLASSIFICATION_TYPE":"U","MEAN_MOTION":13.2440362,"ECCENTRICITY":0.0001655,"INCLINATION":86.494,"RA_OF_ASC_NODE":241.884,"ARG_OF_PERICENTER":104.8779,"MEAN_ANOMALY":255.2538,"EPHEMERIS_TYPE":0,"NORAD_CAT_ID":65169,"ELEMENT_SET_NO":999,"REV_AT_EPOCH":4476,"BSTAR":0.0001126868,"MEAN_MOTION_DOT":6.3e-7,"MEAN_MOTION_DDOT":0},{"OBJECT_NAME":"HULIANWANG DIGUI-64","OBJECT_ID":"2025-174G","EPOCH":"2026-07-17T07:18:30.129696","CLASSIFICATION_TYPE":"U","MEAN_MOTION":13.24407592,"ECCENTRICITY":0.00018264,"INCLINATION":86.4898,"RA_OF_ASC_NODE":241.7283,"ARG_OF_PERICENTER":104.3181,"MEAN_ANOMALY":255.8156,"EPHEMERIS_TYPE":0,"NORAD_CAT_ID":65170,"ELEMENT_SET_NO":999,"REV_AT_EPOCH":4477,"BSTAR":0.00011171288,"MEAN_MOTION_DOT":6.3e-7,"MEAN_MOTION_DDOT":0},{"OBJECT_NAME":"HULIANWANG DIGUI-65","OBJECT_ID":"2025-174H","EPOCH":"2026-07-17T07:40:11.172000","CLASSIFICATION_TYPE":"U","MEAN_MOTION":13.24407603,"ECCENTRICITY":0.0001715,"INCLINATION":86.4862,"RA_OF_ASC_NODE":241.6154,"ARG_OF_PERICENTER":99.8333,"MEAN_ANOMALY":260.2995,"EPHEMERIS_TYPE":0,"NORAD_CAT_ID":65171,"ELEMENT_SET_NO":999,"REV_AT_EPOCH":4477,"BSTAR":0.000053188771,"MEAN_MOTION_DOT":3.7e-7,"MEAN_MOTION_DDOT":0},{"OBJECT_NAME":"HULIANWANG DIGUI-66","OBJECT_ID":"2025-174J","EPOCH":"2026-07-17T05:40:34.768992","CLASSIFICATION_TYPE":"U","MEAN_MOTION":13.24407251,"ECCENTRICITY":0.00018459,"INCLINATION":86.4897,"RA_OF_ASC_NODE":241.7551,"ARG_OF_PERICENTER":102.3638,"MEAN_ANOMALY":257.7703,"EPHEMERIS_TYPE":0,"NORAD_CAT_ID":65172,"ELEMENT_SET_NO":999,"REV_AT_EPOCH":4476,"BSTAR":0.000071617409,"MEAN_MOTION_DOT":4.5e-7,"MEAN_MOTION_DDOT":0},{"OBJECT_NAME":"HULIANWANG DIGUI-67","OBJECT_ID":"2025-174K","EPOCH":"2026-07-17T06:02:17.195424","CLASSIFICATION_TYPE":"U","MEAN_MOTION":13.24408765,"ECCENTRICITY":0.0001822,"INCLINATION":86.4909,"RA_OF_ASC_NODE":241.7986,"ARG_OF_PERICENTER":100.6389,"MEAN_ANOMALY":259.495,"EPHEMERIS_TYPE":0,"NORAD_CAT_ID":65173,"ELEMENT_SET_NO":999,"REV_AT_EPOCH":4473,"BSTAR":0.000018916673,"MEAN_MOTION_DOT":2.3e-7,"MEAN_MOTION_DDOT":0},{"OBJECT_NAME":"HULIANWANG DIGUI-68","OBJECT_ID":"2025-178A","EPOCH":"2026-07-17T06:34:44.890752","CLASSIFICATION_TYPE":"U","MEAN_MOTION":13.2441129,"ECCENTRICITY":0.0001997,"INCLINATION":86.4991,"RA_OF_ASC_NODE":3.3663,"ARG_OF_PERICENTER":91.4484,"MEAN_ANOMALY":268.6879,"EPHEMERIS_TYPE":0,"NORAD_CAT_ID":65228,"ELEMENT_SET_NO":999,"REV_AT_EPOCH":4429,"BSTAR":-0.000008100371,"MEAN_MOTION_DOT":1.1e-7,"MEAN_MOTION_DDOT":0},{"OBJECT_NAME":"HULIANWANG DIGUI-69","OBJECT_ID":"2025-178B","EPOCH":"2026-07-17T06:24:01.639296","CLASSIFICATION_TYPE":"U","MEAN_MOTION":13.24412708,"ECCENTRICITY":0.00019065,"INCLINATION":86.5011,"RA_OF_ASC_NODE":3.4297,"ARG_OF_PERICENTER":92.0191,"MEAN_ANOMALY":268.1161,"EPHEMERIS_TYPE":0,"NORAD_CAT_ID":65229,"ELEMENT_SET_NO":999,"REV_AT_EPOCH":4429,"BSTAR":0.000028645592,"MEAN_MOTION_DOT":2.7e-7,"MEAN_MOTION_DDOT":0},{"OBJECT_NAME":"HULIANWANG DIGUI-70","OBJECT_ID":"2025-178C","EPOCH":"2026-07-17T06:13:08.387904","CLASSIFICATION_TYPE":"U","MEAN_MOTION":13.24411812,"ECCENTRICITY":0.00019935,"INCLINATION":86.4949,"RA_OF_ASC_NODE":3.2219,"ARG_OF_PERICENTER":89.8184,"MEAN_ANOMALY":270.3179,"EPHEMERIS_TYPE":0,"NORAD_CAT_ID":65230,"ELEMENT_SET_NO":999,"REV_AT_EPOCH":4429,"BSTAR":0.000046533678,"MEAN_MOTION_DOT":3.5e-7,"MEAN_MOTION_DDOT":0},{"OBJECT_NAME":"HULIANWANG DIGUI-71","OBJECT_ID":"2025-178D","EPOCH":"2026-07-17T06:02:17.104704","CLASSIFICATION_TYPE":"U","MEAN_MOTION":13.24411496,"ECCENTRICITY":0.00019732,"INCLINATION":86.5008,"RA_OF_ASC_NODE":3.4144,"ARG_OF_PERICENTER":90.6284,"MEAN_ANOMALY":269.5076,"EPHEMERIS_TYPE":0,"NORAD_CAT_ID":65231,"ELEMENT_SET_NO":999,"REV_AT_EPOCH":4429,"BSTAR":0.000046951123,"MEAN_MOTION_DOT":3.5e-7,"MEAN_MOTION_DDOT":0},{"OBJECT_NAME":"HULIANWANG DIGUI-72","OBJECT_ID":"2025-178E","EPOCH":"2026-07-17T05:51:24.488352","CLASSIFICATION_TYPE":"U","MEAN_MOTION":13.24410945,"ECCENTRICITY":0.00019789,"INCLINATION":86.4991,"RA_OF_ASC_NODE":3.3532,"ARG_OF_PERICENTER":90.7781,"MEAN_ANOMALY":269.358,"EPHEMERIS_TYPE":0,"NORAD_CAT_ID":65232,"ELEMENT_SET_NO":999,"REV_AT_EPOCH":4429,"BSTAR":0.000015549842,"MEAN_MOTION_DOT":2.1e-7,"MEAN_MOTION_DDOT":0},{"OBJECT_NAME":"HULIANWANG DIGUI-73","OBJECT_ID":"2025-187A","EPOCH":"2026-07-17T06:49:25.819104","CLASSIFICATION_TYPE":"U","MEAN_MOTION":13.29323599,"ECCENTRICITY":0.00000976,"INCLINATION":50.0053,"RA_OF_ASC_NODE":97.9383,"ARG_OF_PERICENTER":328.0149,"MEAN_ANOMALY":32.0717,"EPHEMERIS_TYPE":0,"NORAD_CAT_ID":65305,"ELEMENT_SET_NO":999,"REV_AT_EPOCH":4370,"BSTAR":0.000055498071,"MEAN_MOTION_DOT":-9.8e-7,"MEAN_MOTION_DDOT":0},{"OBJECT_NAME":"HULIANWANG DIGUI-74","OBJECT_ID":"2025-187B","EPOCH":"2026-07-17T06:25:30.462816","CLASSIFICATION_TYPE":"U","MEAN_MOTION":13.29321611,"ECCENTRICITY":0.0000098,"INCLINATION":50.0095,"RA_OF_ASC_NODE":97.9603,"ARG_OF_PERICENTER":314.6472,"MEAN_ANOMALY":45.4393,"EPHEMERIS_TYPE":0,"NORAD_CAT_ID":65306,"ELEMENT_SET_NO":999,"REV_AT_EPOCH":4370,"BSTAR":0.000051759781,"MEAN_MOTION_DOT":-0.000001,"MEAN_MOTION_DDOT":0},{"OBJECT_NAME":"HULIANWANG DIGUI-75","OBJECT_ID":"2025-187C","EPOCH":"2026-07-17T06:01:28.345728","CLASSIFICATION_TYPE":"U","MEAN_MOTION":13.29322786,"ECCENTRICITY":0.00001022,"INCLINATION":50.0087,"RA_OF_ASC_NODE":97.8539,"ARG_OF_PERICENTER":330.346,"MEAN_ANOMALY":29.7406,"EPHEMERIS_TYPE":0,"NORAD_CAT_ID":65307,"ELEMENT_SET_NO":999,"REV_AT_EPOCH":4370,"BSTAR":0.000058044825,"MEAN_MOTION_DOT":-9.7e-7,"MEAN_MOTION_DDOT":0}]}
